IRIDIUM 144             
1 43249U 18030A   23255.02897605  .00000414  00000+0  14064-3 0  9994
2 43249  86.4030 352.1790 0002026  88.7637 271.3790 14.34214404285518
IRIDIUM 149             
1 43250U 18030B   23254.54693852  .00000386  00000+0  13076-3 0  9990
2 43250  86.4030 352.3583 0002007  88.8097 271.3328 14.34219424285448
IRIDIUM 157             
1 43251U 18030C   23255.33342218  .00000400  00000+0  13581-3 0  9994
2 43251  86.4030 352.0608 0002240  98.4044 261.7406 14.34219075285534
IRIDIUM 140             
1 43252U 18030D   23255.00359475  .00000584  00000+0  20128-3 0  9990
2 43252  86.4031 352.2130 0002194  86.7072 273.4375 14.34219599285544
IRIDIUM 145             
1 43253U 18030E   23254.99092410  .00000426  00000+0  14491-3 0  9992
2 43253  86.4030 352.1932 0001814  86.0206 274.1198 14.34217015285477
IRIDIUM 146             
1 43254U 18030F   23255.39050142  .00000461  00000+0  15743-3 0  9994
2 43254  86.4030 352.0420 0001915  93.8145 266.3270 14.34219285285542
IRIDIUM 148             
1 43255U 18030G   23255.35879270  .00000381  00000+0  12910-3 0  9996
2 43255  86.4031 352.0833 0001874  97.9312 262.2097 14.34221122285586
IRIDIUM 142             
1 43256U 18030H   23254.69916025  .00000392  00000+0  13289-3 0  9995
2 43256  86.4027 352.2842 0002045  95.8606 264.2823 14.34219611285442
